NORAD_CAT_ID,OBJECT_NAME,OBJECT_TYPE,EPOCH,MEAN_MOTION,ECCENTRICITY,INCLINATION,RA_OF_ASC_NODE,ARG_OF_PERICENTER,MEAN_ANOMALY,BSTAR,MEAN_MOTION_DOT,MEAN_MOTION_DDOT,TLE_LINE0,TLE_LINE1,TLE_LINE2,SEMIMAJOR_AXIS,PERIOD,APOGEE,PERIGEE,DECAYED
52382.0,STARLINK-3799,PAYLOAD,2024-06-24 01:55:16,15.08843946,0.0001264,53.2177,108.6243,87.9237,272.19,9.7844e-05,1.27e-05,0.0,0 STARLINK-3799,1 52382U 22045BD  24176.08005057  .00001270  00000-0  97844-4 0  9994,2 52382  53.2177 108.6243 0001264  87.9237 272.1900 15.08843946121788,6917.868,95.437,540.608,538.859,0.0
52382.0,STARLINK-3799,PAYLOAD,2024-06-25 01:46:03,15.0884172,0.0001549,53.2183,104.1637,68.706,291.4097,-1.8998e-05,-5.9e-06,0.0,0 STARLINK-3799,1 52382U 22045BD  24177.07365611 -.00000590  00000-0 -18998-4 0  9998,2 52382  53.2183 104.1637 0001549  68.7060 291.4097 15.08841720121936,6917.875,95.437,540.812,538.669,0.0
52382.0,STARLINK-3799,PAYLOAD,2024-06-25 22:26:04,15.08838932,0.0001433,53.2179,100.3046,91.9775,268.1381,4.1258e-05,3.69e-06,0.0,0 STARLINK-3799,1 52382U 22045BD  24177.93477387  .00000369  00000-0  41258-4 0  9994,2 52382  53.2179 100.3046 0001433  91.9775 268.1381 15.08838932122069,6917.884,95.438,540.74,538.757,0.0
52382.0,STARLINK-3799,PAYLOAD,2024-06-26 01:36:50,15.08841297,0.0001472,53.2174,99.7058,82.5616,277.5543,5.6286e-05,6.08e-06,0.0,0 STARLINK-3799,1 52382U 22045BD  24178.06725197  .00000608  00000-0  56286-4 0  9997,2 52382  53.2174  99.7058 0001472  82.5616 277.5543 15.08841297122085,6917.876,95.437,540.76,538.723,0.0
52382.0,STARLINK-3799,PAYLOAD,2024-06-26 23:52:14,15.08834846,0.0001472,53.218,95.5343,82.7769,277.339,2.4484e-05,1.02e-06,0.0,0 STARLINK-3799,1 52382U 22045BD  24178.99461779  .00000102  00000-0  24484-4 0  9996,2 52382  53.2180  95.5343 0001472  82.7769 277.3390 15.08834846122220,6917.896,95.438,540.779,538.743,0.0
52382.0,STARLINK-3799,PAYLOAD,2024-06-27 22:07:39,15.08829115,0.0001352,53.2173,91.3799,92.6667,267.448,-6.5599e-05,-1.331e-05,0.0,0 STARLINK-3799,1 52382U 22045BD  24179.92198782 -.00001331  00000-0 -65599-4 0  9990,2 52382  53.2173  91.3799 0001352  92.6667 267.4480 15.08829115122363,6917.914,95.438,540.714,538.843,0.0
52382.0,STARLINK-3799,PAYLOAD,2024-06-28 01:18:25,15.08832804,0.0001401,53.2176,90.788,102.296,257.8189,-4.5513e-05,-1.012e-05,0.0,0 STARLINK-3799,1 52382U 22045BD  24180.05446502 -.00001012  00000-0 -45513-4 0  9992,2 52382  53.2176  90.7880 0001401 102.2960 257.8189 15.08832804122389,6917.902,95.438,540.737,538.798,0.0
52382.0,STARLINK-3799,PAYLOAD,2024-06-28 10:50:42,15.08853609,0.0001206,53.2167,88.9958,67.6022,292.5098,0.0001085,1.44e-05,0.0,0 STARLINK-3799,1 52382U 22045BD  24180.45188584  .00001440  00000-0  10850-3 0  9997,2 52382  53.2167  88.9958 0001206  67.6022 292.5098 15.08853609122448,6917.839,95.437,540.538,538.87,0.0
52382.0,STARLINK-3799,PAYLOAD,2024-06-28 21:58:26,15.08832731,0.0001147,53.2164,86.9159,62.576,297.5349,-4.2142e-05,-9.58e-06,0.0,0 STARLINK-3799,1 52382U 22045BD  24180.91558621 -.00000958  00000-0 -42142-4 0  9996,2 52382  53.2164  86.9159 0001147  62.5760 297.5349 15.08832731122518,6917.903,95.438,540.561,538.974,0.0
52382.0,STARLINK-3799,PAYLOAD,2024-06-29 04:19:57,15.08849811,0.0001051,53.2164,85.7275,87.7476,272.3637,0.00010277,1.349e-05,0.0,0 STARLINK-3799,1 52382U 22045BD  24181.18053050  .00001349  00000-0  10277-3 0  9998,2 52382  53.2164  85.7275 0001051  87.7476 272.3637 15.08849811122553,6917.85,95.437,540.442,538.988,0.0
52382.0,STARLINK-3799,PAYLOAD,2024-06-29 10:41:30,15.08852054,0.0001127,53.2166,84.5385,80.4174,279.6945,0.00011958,1.616e-05,0.0,0 STARLINK-3799,1 52382U 22045BD  24181.44548764  .00001616  00000-0  11958-3 0  9992,2 52382  53.2166  84.5385 0001127  80.4174 279.6945 15.08852054122592,6917.844,95.437,540.488,538.929,0.0
52382.0,STARLINK-3799,PAYLOAD,2024-06-29 21:49:14,15.08815462,0.0001135,53.2171,82.457,92.4793,267.6329,-2.8428e-05,-7.4e-06,0.0,0 STARLINK-3799,1 52382U 22045BD  24181.90919875 -.00000740  00000-0 -28428-4 0  9998,2 52382  53.2171  82.4570 0001135  92.4793 267.6329 15.08815462122663,6917.955,95.439,540.606,539.035,0.0
52382.0,STARLINK-3799,PAYLOAD,2024-06-30 02:35:23,15.08838288,0.0001101,53.2173,81.5626,99.5018,260.6099,-6.0623e-05,-1.252e-05,0.0,0 STARLINK-3799,1 52382U 22045BD  24182.10790708 -.00001252  00000-0 -60623-4 0  9995,2 52382  53.2173  81.5626 0001101  99.5018 260.6099 15.08838288122699,6917.886,95.438,540.512,538.989,0.0
52382.0,STARLINK-3799,PAYLOAD,2024-06-30 21:40:00,15.0883877,0.0001378,53.2193,77.9958,85.0781,275.0368,0.00014439,2.011e-05,0.0,0 STARLINK-3799,1 52382U 22045BD  24182.90278344  .00002011  00000-0  14439-3 0  9995,2 52382  53.2193  77.9958 0001378  85.0781 275.0368 15.08838770122810,6917.884,95.438,540.702,538.796,0.0
52382.0,STARLINK-3799,PAYLOAD,2024-07-01 02:26:09,15.08851834,0.0001249,53.2179,77.104,103.2415,256.8716,8.1507e-05,1.01e-05,0.0,0 STARLINK-3799,1 52382U 22045BD  24183.10149720  .00001010  00000-0  81507-4 0  9992,2 52382  53.2179  77.1040 0001249 103.2415 256.8716 15.08851834122845,6917.844,95.437,540.573,538.845,0.0
52382.0,STARLINK-3799,PAYLOAD,2024-07-01 10:23:04,15.0885829,0.0001248,53.2181,75.6176,103.129,256.9842,0.00014248,1.982e-05,0.0,0 STARLINK-3799,1 52382U 22045BD  24183.43268990  .00001982  00000-0  14248-3 0  9994,2 52382  53.2181  75.6176 0001248 103.1290 256.9842 15.08858290122899,6917.824,95.436,540.553,538.826,0.0
52382.0,STARLINK-3799,PAYLOAD,2024-07-01 21:30:48,15.08825437,0.000129,53.2176,73.5362,97.4067,262.7072,0.00014998,2.099e-05,0.0,0 STARLINK-3799,1 52382U 22045BD  24183.89639143  .00002099  00000-0  14998-3 0  9998,2 52382  53.2176  73.5362 0001290  97.4067 262.7072 15.08825437122966,6917.925,95.438,540.682,538.897,0.0
52382.0,STARLINK-3799,PAYLOAD,2024-07-01 23:06:11,15.08825246,0.0001364,53.2205,73.2389,96.0071,264.1077,0.00014118,1.959e-05,0.0,0 STARLINK-3799,1 52382U 22045BD  24183.96263576  .00001959  00000-0  14118-3 0  9997,2 52382  53.2205  73.2389 0001364  96.0071 264.1077 15.08825246122977,6917.925,95.438,540.734,538.847,0.0
52382.0,STARLINK-3799,PAYLOAD,2024-07-02 02:16:57,15.08835778,0.0001427,53.2183,72.6415,108.1258,251.989,0.00012785,1.747e-05,0.0,0 STARLINK-3799,1 52382U 22045BD  24184.09510765  .00001747  00000-0  12785-3 0  9990,2 52382  53.2183  72.6415 0001427 108.1258 251.9890 15.08835778122997,6917.893,95.438,540.745,538.771,0.0
52382.0,STARLINK-3799,PAYLOAD,2024-07-02 10:13:52,15.08846772,0.0001328,53.2178,71.1572,101.9332,258.1809,0.00019267,2.78e-05,0.0,0 STARLINK-3799,1 52382U 22045BD  24184.42630157  .00002780  00000-0  19267-3 0  9995,2 52382  53.2178  71.1572 0001328 101.9332 258.1809 15.08846772123045,6917.86,95.437,540.643,538.806,0.0
52382.0,STARLINK-3799,PAYLOAD,2024-07-02 21:21:34,15.08841033,0.0001667,53.2176,69.0737,125.9153,234.1994,-1.8256e-05,-5.79e-06,0.0,0 STARLINK-3799,1 52382U 22045BD  24184.88998412 -.00000579  00000-0 -18256-4 0  9990,2 52382  53.2176  69.0737 0001667 125.9153 234.1994 15.08841033123117,6917.877,95.437,540.895,538.589,0.0
52382.0,STARLINK-3799,PAYLOAD,2024-07-03 02:07:44,15.08841724,0.0001266,53.2172,68.1829,112.6473,247.4653,-2.9677e-05,-7.6e-06,0.0,0 STARLINK-3799,1 52382U 22045BD  24185.08870413 -.00000760  00000-0 -29677-4 0  9994,2 52382  53.2172  68.1829 0001266 112.6473 247.4653 15.08841724123147,6917.875,95.437,540.616,538.864,0.0
52382.0,STARLINK-3799,PAYLOAD,2024-07-03 21:12:21,15.08840399,0.0001225,53.2174,64.6143,115.9944,244.1174,0.00022282,3.26e-05,0.0,0 STARLINK-3799,1 52382U 22045BD  24185.88358550  .00003260  00000-0  22282-3 0  9995,2 52382  53.2174  64.6143 0001225 115.9944 244.1174 15.08840399123265,6917.879,95.438,540.592,538.897,0.0
52382.0,STARLINK-3799,PAYLOAD,2024-07-04 08:20:03,15.0885401,0.0001204,53.2178,62.5351,94.1368,265.9762,0.00025836,3.828e-05,0.0,0 STARLINK-3799,1 52382U 22045BD  24186.34725867  .00003828  00000-0  25836-3 0  9994,2 52382  53.2178  62.5351 0001204  94.1368 265.9762 15.08854010123339,6917.838,95.437,540.535,538.87,0.0
52382.0,STARLINK-3799,PAYLOAD,2024-07-04 21:03:09,15.08836802,0.0001337,53.2177,60.1586,91.2594,268.8551,5.3882e-05,5.7e-06,0.0,0 STARLINK-3799,1 52382U 22045BD  24186.87718811  .00000570  00000-0  53882-4 0  9997,2 52382  53.2177  60.1586 0001337  91.2594 268.8551 15.08836802123414,6917.89,95.438,540.68,538.83,0.0
52382.0,STARLINK-3799,PAYLOAD,2024-07-04 22:38:32,15.08840514,0.0001251,53.2176,59.8611,86.4087,273.7048,6.0209e-05,6.7e-06,0.0,0 STARLINK-3799,1 52382U 22045BD  24186.94342665  .00000670  00000-0  60209-4 0  9997,2 52382  53.2176  59.8611 0001251  86.4087 273.7048 15.08840514123427,6917.879,95.438,540.609,538.878,0.0
52382.0,STARLINK-3799,PAYLOAD,2024-07-05 08:10:50,15.08854141,0.0001298,53.2183,58.0768,87.826,272.288,0.00028379,4.233e-05,0.0,0 STARLINK-3799,1 52382U 22045BD  24187.34086002  .00004233  00000-0  28379-3 0  9992,2 52382  53.2183  58.0768 0001298  87.8260 272.2880 15.08854141123483,6917.837,95.437,540.6,538.804,0.0
52382.0,STARLINK-3799,PAYLOAD,2024-07-05 20:53:56,15.08835047,0.0001413,53.2181,55.6969,104.9121,255.2027,-5.1003e-05,-1.099e-05,0.0,0 STARLINK-3799,1 52382U 22045BD  24187.87078749 -.00001099  00000-0 -51003-4 0  9999,2 52382  53.2181  55.6969 0001413 104.9121 255.2027 15.08835047123560,6917.896,95.438,540.738,538.783,0.0
52382.0,STARLINK-3799,PAYLOAD,2024-07-05 22:29:19,15.08836596,0.0001263,53.2176,55.4002,101.3545,258.7589,-1.4766e-06,-3.11e-06,0.0,0 STARLINK-3799,1 52382U 22045BD  24187.93702668 -.00000311  00000-0 -14766-5 0  9992,2 52382  53.2176  55.4002 0001263 101.3545 258.7589 15.08836596123576,6917.891,95.438,540.63,538.882,0.0
52382.0,STARLINK-3799,PAYLOAD,2024-07-06 08:01:37,15.08848676,0.0001196,53.2177,53.6158,90.2269,269.886,0.00051569,7.931e-05,0.0,0 STARLINK-3799,1 52382U 22045BD  24188.33446457  .00007931  00000-0  51569-3 0  9991,2 52382  53.2177  53.6158 0001196  90.2269 269.8860 15.08848676123637,6917.854,95.437,540.546,538.891,0.0
